{"type":"FeatureCollection","name":"lapd_divisions","crs":{"type":"name","properties":{"name":"urn:ogc:def:crs:OGC:1.3:CRS84"}},"features":[{"type":"Feature","properties":{"area name":"77th Street","area":12,"n_crimes":61623,"source":"convex_hull_approximation","total_addresses":59680,"active_addresses":56571,"inactive_addresses":3109,"vacancy_pct":5.2},"geometry":{"type":"Polygon","coordinates":[[[-118.31340026855469,33.938201904296875],[-118.35859680175781,33.9818000793457],[-118.35859680175781,33.981998443603516],[-118.35230255126953,33.98889923095703],[-118.33670043945312,33.995601654052734],[-118.31710052490234,34.003700256347656],[-118.2842025756836,34.00379943847656],[-118.28160095214844,34.00379943847656],[-118.25650024414062,33.97480010986328],[-118.25640106201172,33.973899841308594],[-118.25640106201172,33.960201263427734],[-118.30899810791016,33.938201904296875],[-118.31340026855469,33.938201904296875]]]}},{"type":"Feature","properties":{"area name":"Central","area":1,"n_crimes":69474,"source":"convex_hull_approximation","total_addresses":18878,"active_addresses":14730,"inactive_addresses":4148,"vacancy_pct":22.0},"geometry":{"type":"Polygon","coordinates":[[[-118.26129913330078,34.029598236083984],[-118.26249694824219,34.03010177612305],[-118.27079772949219,34.03379821777344],[-118.27339935302734,34.03499984741211],[-118.27400207519531,34.035301208496094],[-118.2738037109375,34.039100646972656],[-118.27279663085938,34.04280090332031],[-118.25129699707031,34.073001861572266],[-118.25039672851562,34.073699951171875],[-118.23079681396484,34.07609939575195],[-118.23069763183594,34.07609939575195],[-118.22760009765625,34.075199127197266],[-118.22630310058594,34.07170104980469],[-118.2260971069336,34.06999969482422],[-118.22589874267578,34.06769943237305],[-118.22920227050781,34.036399841308594],[-118.2301025390625,34.03459930419922],[-118.26129913330078,34.029598236083984]]]}},{"type":"Feature","properties":{"area name":"Devonshire","area":17,"n_crimes":41647,"source":"convex_hull_approximation","total_addresses":68637,"active_addresses":64628,"inactive_addresses":4009,"vacancy_pct":5.8},"geometry":{"type":"Polygon","coordinates":[[[-118.5863037109375,34.220001220703125],[-118.63240051269531,34.23979949951172],[-118.62570190429688,34.27069854736328],[-118.5833969116211,34.30099868774414],[-118.50599670410156,34.33300018310547],[-118.4906997680664,34.315101623535156],[-118.4813003540039,34.304100036621094],[-118.48040008544922,34.303001403808594],[-118.46980285644531,34.28850173950195],[-118.45549774169922,34.25],[-118.47489929199219,34.22140121459961],[-118.5,34.22090148925781],[-118.58419799804688,34.220001220703125],[-118.5863037109375,34.220001220703125]]]}},{"type":"Feature","properties":{"area name":"Foothill","area":16,"n_crimes":33055,"source":"convex_hull_approximation","total_addresses":35015,"active_addresses":28642,"inactive_addresses":6373,"vacancy_pct":18.2},"geometry":{"type":"Polygon","coordinates":[[[-118.34970092773438,34.20650100708008],[-118.36299896240234,34.20690155029297],[-118.40519714355469,34.208499908447266],[-118.40619659423828,34.20949935913086],[-118.43920135498047,34.26150131225586],[-118.44029998779297,34.26340103149414],[-118.44149780273438,34.267398834228516],[-118.43340301513672,34.276798248291016],[-118.4260025024414,34.284400939941406],[-118.41570281982422,34.29399871826172],[-118.28880310058594,34.29029846191406],[-118.27020263671875,34.271400451660156],[-118.26580047607422,34.254798889160156],[-118.26599884033203,34.241600036621094],[-118.26640319824219,34.23400115966797],[-118.2688980102539,34.233001708984375],[-118.34159851074219,34.2067985534668],[-118.34439849853516,34.206600189208984],[-118.34970092773438,34.20650100708008]]]}},{"type":"Feature","properties":{"area name":"Harbor","area":5,"n_crimes":41331,"source":"convex_hull_approximation","total_addresses":53336,"active_addresses":45763,"inactive_addresses":7573,"vacancy_pct":14.2},"geometry":{"type":"Polygon","coordinates":[[[-118.29139709472656,33.70589828491211],[-118.29199981689453,33.70610046386719],[-118.31819915771484,33.71659851074219],[-118.32890319824219,33.721099853515625],[-118.30909729003906,33.8656005859375],[-118.27030181884766,34.00749969482422],[-118.2249984741211,33.82429885864258],[-118.22250366210938,33.804500579833984],[-118.22160339355469,33.78350067138672],[-118.23989868164062,33.73149871826172],[-118.25050354003906,33.722599029541016],[-118.256103515625,33.719600677490234],[-118.28790283203125,33.707000732421875],[-118.29139709472656,33.70589828491211]]]}},{"type":"Feature","properties":{"area name":"Hollenbeck","area":4,"n_crimes":36998,"source":"convex_hull_approximation","total_addresses":51347,"active_addresses":41928,"inactive_addresses":9419,"vacancy_pct":18.3},"geometry":{"type":"Polygon","coordinates":[[[-118.20590209960938,34.01279830932617],[-118.22000122070312,34.016300201416016],[-118.22260284423828,34.017398834228516],[-118.2300033569336,34.04800033569336],[-118.2249984741211,34.077999114990234],[-118.19930267333984,34.101600646972656],[-118.18620300292969,34.1077995300293],[-118.1781997680664,34.11149978637695],[-118.15540313720703,34.09859848022461],[-118.16120147705078,34.07509994506836],[-118.16259765625,34.070899963378906],[-118.19219970703125,34.01380157470703],[-118.20590209960938,34.01279830932617]]]}},{"type":"Feature","properties":{"area name":"Hollywood","area":6,"n_crimes":52107,"source":"convex_hull_approximation","total_addresses":47158,"active_addresses":39215,"inactive_addresses":7943,"vacancy_pct":16.8},"geometry":{"type":"Polygon","coordinates":[[[-118.35990142822266,34.057498931884766],[-118.39550018310547,34.09199905395508],[-118.39520263671875,34.09619903564453],[-118.39099884033203,34.120201110839844],[-118.38990020751953,34.121498107910156],[-118.3718032836914,34.12929916381836],[-118.34380340576172,34.13330078125],[-118.32160186767578,34.13460159301758],[-118.31549835205078,34.1338005065918],[-118.30059814453125,34.10540008544922],[-118.30049896240234,34.10179901123047],[-118.30039978027344,34.08359909057617],[-118.35990142822266,34.057498931884766]]]}},{"type":"Feature","properties":{"area name":"Mission","area":19,"n_crimes":40228,"source":"convex_hull_approximation","total_addresses":78307,"active_addresses":72343,"inactive_addresses":5964,"vacancy_pct":7.6},"geometry":{"type":"Polygon","coordinates":[[[-118.26529693603516,34.014400482177734],[-118.47200012207031,34.217201232910156],[-118.50469970703125,34.33430099487305],[-118.41169738769531,34.32889938354492],[-118.40709686279297,34.327701568603516],[-118.39830017089844,34.31890106201172],[-118.26529693603516,34.014400482177734]]]}},{"type":"Feature","properties":{"area name":"N Hollywood","area":15,"n_crimes":51014,"source":"convex_hull_approximation","total_addresses":39642,"active_addresses":35745,"inactive_addresses":3897,"vacancy_pct":9.8},"geometry":{"type":"Polygon","coordinates":[[[-118.34300231933594,34.117000579833984],[-118.39820098876953,34.120201110839844],[-118.41120147705078,34.13240051269531],[-118.42250061035156,34.149600982666016],[-118.42630004882812,34.202598571777344],[-118.42620086669922,34.20479965209961],[-118.42610168457031,34.20690155029297],[-118.42459869384766,34.213401794433594],[-118.42269897460938,34.21989822387695],[-118.41020202636719,34.21989822387695],[-118.36479949951172,34.208499908447266],[-118.31800079345703,34.15250015258789],[-118.31800079345703,34.152400970458984],[-118.3240966796875,34.142799377441406],[-118.34300231933594,34.117000579833984]]]}},{"type":"Feature","properties":{"area name":"Newton","area":13,"n_crimes":49075,"source":"convex_hull_approximation","total_addresses":40611,"active_addresses":36374,"inactive_addresses":4237,"vacancy_pct":10.4},"geometry":{"type":"Polygon","coordinates":[[[-118.28040313720703,33.974700927734375],[-118.28089904785156,34.00740051269531],[-118.28089904785156,34.01390075683594],[-118.27989959716797,34.01729965209961],[-118.27400207519531,34.035301208496094],[-118.2468032836914,34.04069900512695],[-118.22979736328125,34.03450012207031],[-118.22350311279297,34.017398834228516],[-118.23789978027344,33.989200592041016],[-118.25650024414062,33.97480010986328],[-118.26080322265625,33.974700927734375],[-118.28040313720703,33.974700927734375]]]}},{"type":"Feature","properties":{"area name":"Northeast","area":11,"n_crimes":42907,"source":"convex_hull_approximation","total_addresses":79450,"active_addresses":68167,"inactive_addresses":11283,"vacancy_pct":14.2},"geometry":{"type":"Polygon","coordinates":[[[-118.2384033203125,34.068199157714844],[-118.2654037475586,34.07749938964844],[-118.30049896240234,34.09080123901367],[-118.3093032836914,34.10540008544922],[-118.32820129394531,34.15010070800781],[-118.32749938964844,34.15060043334961],[-118.32559967041016,34.1515007019043],[-118.31089782714844,34.15520095825195],[-118.29669952392578,34.158599853515625],[-118.29650115966797,34.158599853515625],[-118.18440246582031,34.14590072631836],[-118.18219757080078,34.1432991027832],[-118.16790008544922,34.12220001220703],[-118.1677017211914,34.12179946899414],[-118.17060089111328,34.11690139770508],[-118.17150115966797,34.1161994934082],[-118.17240142822266,34.115501403808594],[-118.17320251464844,34.114898681640625],[-118.21070098876953,34.087398529052734],[-118.2384033203125,34.068199157714844]]]}},{"type":"Feature","properties":{"area name":"Olympic","area":20,"n_crimes":49940,"source":"convex_hull_approximation","total_addresses":26470,"active_addresses":24320,"inactive_addresses":2150,"vacancy_pct":8.1},"geometry":{"type":"Polygon","coordinates":[[[-118.31770324707031,34.036800384521484],[-118.32389831542969,34.0531005859375],[-118.32270050048828,34.08169937133789],[-118.32170104980469,34.083499908447266],[-118.30259704589844,34.08359909057617],[-118.30049896240234,34.08359909057617],[-118.2844009399414,34.076698303222656],[-118.28379821777344,34.07500076293945],[-118.28309631347656,34.063201904296875],[-118.28399658203125,34.03810119628906],[-118.28710174560547,34.037601470947266],[-118.2916030883789,34.03710174560547],[-118.31770324707031,34.036800384521484]]]}},{"type":"Feature","properties":{"area name":"Pacific","area":14,"n_crimes":59340,"source":"convex_hull_approximation","total_addresses":59571,"active_addresses":53158,"inactive_addresses":6413,"vacancy_pct":10.8},"geometry":{"type":"Polygon","coordinates":[[[-118.42759704589844,33.916500091552734],[-118.4791030883789,33.991798400878906],[-118.48200225830078,33.996299743652344],[-118.45249938964844,34.0275993347168],[-118.44290161132812,34.02989959716797],[-118.4352035522461,34.03099822998047],[-118.4280014038086,34.03179931640625],[-118.41699981689453,34.031700134277344],[-118.39119720458984,34.030601501464844],[-118.38809967041016,34.02939987182617],[-118.36019897460938,33.9822998046875],[-118.37000274658203,33.93090057373047],[-118.37010192871094,33.93050003051758],[-118.42759704589844,33.916500091552734]]]}},{"type":"Feature","properties":{"area name":"Rampart","area":2,"n_crimes":46721,"source":"convex_hull_approximation","total_addresses":30998,"active_addresses":27980,"inactive_addresses":3018,"vacancy_pct":9.7},"geometry":{"type":"Polygon","coordinates":[[[-118.28399658203125,34.03770065307617],[-118.30419921875,34.05590057373047],[-118.30909729003906,34.06169891357422],[-118.30049896240234,34.09080123901367],[-118.28040313720703,34.092498779296875],[-118.25240325927734,34.07460021972656],[-118.25189971923828,34.07419967651367],[-118.2511978149414,34.072898864746094],[-118.25080108642578,34.071998596191406],[-118.247802734375,34.06399917602539],[-118.25019836425781,34.06169891357422],[-118.2738037109375,34.03919982910156],[-118.28050231933594,34.03810119628906],[-118.28309631347656,34.03770065307617],[-118.28399658203125,34.03770065307617]]]}},{"type":"Feature","properties":{"area name":"Southeast","area":18,"n_crimes":49788,"source":"convex_hull_approximation","total_addresses":35356,"active_addresses":28637,"inactive_addresses":6719,"vacancy_pct":19.0},"geometry":{"type":"Polygon","coordinates":[[[-118.29100036621094,33.87289810180664],[-118.29139709472656,33.88249969482422],[-118.29170227050781,33.89139938354492],[-118.29180145263672,33.959999084472656],[-118.28810119628906,33.96009826660156],[-118.26509857177734,33.960201263427734],[-118.25640106201172,33.960201263427734],[-118.23400115966797,33.95330047607422],[-118.22899627685547,33.948299407958984],[-118.22820281982422,33.94660186767578],[-118.22789764404297,33.94309997558594],[-118.23030090332031,33.92900085449219],[-118.28209686279297,33.87350082397461],[-118.29090118408203,33.87289810180664],[-118.29100036621094,33.87289810180664]]]}},{"type":"Feature","properties":{"area name":"Southwest","area":3,"n_crimes":57369,"source":"convex_hull_approximation","total_addresses":54568,"active_addresses":50646,"inactive_addresses":3922,"vacancy_pct":7.2},"geometry":{"type":"Polygon","coordinates":[[[-118.33070373535156,33.994998931884766],[-118.35780334472656,33.997100830078125],[-118.35790252685547,33.99720001220703],[-118.38050079345703,34.02080154418945],[-118.37680053710938,34.02669906616211],[-118.3750991821289,34.028900146484375],[-118.36959838867188,34.03450012207031],[-118.36920166015625,34.0348014831543],[-118.30030059814453,34.0369987487793],[-118.27950286865234,34.037601470947266],[-118.2771987915039,34.03739929199219],[-118.2760009765625,34.037200927734375],[-118.27529907226562,34.0359001159668],[-118.27439880371094,34.030799865722656],[-118.27449798583984,34.0275993347168],[-118.28150177001953,34.00379943847656],[-118.31719970703125,33.994998931884766],[-118.33070373535156,33.994998931884766]]]}},{"type":"Feature","properties":{"area name":"Topanga","area":21,"n_crimes":41335,"source":"convex_hull_approximation","total_addresses":57664,"active_addresses":53502,"inactive_addresses":4162,"vacancy_pct":7.2},"geometry":{"type":"Polygon","coordinates":[[[-118.57099914550781,34.13560104370117],[-118.62799835205078,34.148101806640625],[-118.63289642333984,34.15079879760742],[-118.65350341796875,34.166099548339844],[-118.66729736328125,34.1775016784668],[-118.6676025390625,34.18000030517578],[-118.66719818115234,34.18239974975586],[-118.66290283203125,34.200199127197266],[-118.65760040283203,34.220401763916016],[-118.65740203857422,34.22100067138672],[-118.65270233154297,34.22650146484375],[-118.6427001953125,34.237098693847656],[-118.61949920654297,34.24169921875],[-118.61250305175781,34.242698669433594],[-118.61039733886719,34.242698669433594],[-118.6082992553711,34.2421989440918],[-118.60700225830078,34.24169921875],[-118.59290313720703,34.23550033569336],[-118.56230163574219,34.220401763916016],[-118.56220245361328,34.20119857788086],[-118.56220245361328,34.17259979248047],[-118.5625,34.16310119628906],[-118.57099914550781,34.13560104370117]]]}},{"type":"Feature","properties":{"area name":"Van Nuys","area":9,"n_crimes":42809,"source":"convex_hull_approximation","total_addresses":42344,"active_addresses":38835,"inactive_addresses":3509,"vacancy_pct":8.3},"geometry":{"type":"Polygon","coordinates":[[[-118.41590118408203,34.12649917602539],[-118.46800231933594,34.129600524902344],[-118.47000122070312,34.132999420166016],[-118.4708023071289,34.141700744628906],[-118.47370147705078,34.18790054321289],[-118.47380065917969,34.19070053100586],[-118.47380065917969,34.19179916381836],[-118.47360229492188,34.20119857788086],[-118.4728012084961,34.20830154418945],[-118.47059631347656,34.21369934082031],[-118.46739959716797,34.214900970458984],[-118.46610260009766,34.214900970458984],[-118.42870330810547,34.20759963989258],[-118.4136962890625,34.18669891357422],[-118.4052963256836,34.15760040283203],[-118.40679931640625,34.12900161743164],[-118.41590118408203,34.12649917602539]]]}},{"type":"Feature","properties":{"area name":"West LA","area":8,"n_crimes":45678,"source":"convex_hull_approximation","total_addresses":52781,"active_addresses":48445,"inactive_addresses":4336,"vacancy_pct":8.2},"geometry":{"type":"Polygon","coordinates":[[[-118.51570129394531,34.02619934082031],[-118.51840209960938,34.0265998840332],[-118.56700134277344,34.04169845581055],[-118.56790161132812,34.04290008544922],[-118.5885009765625,34.07429885864258],[-118.56819915771484,34.092098236083984],[-118.51629638671875,34.128700256347656],[-118.51280212402344,34.12929916381836],[-118.50050354003906,34.13059997558594],[-118.49189758300781,34.13100051879883],[-118.4530029296875,34.13240051269531],[-118.43769836425781,34.131500244140625],[-118.40879821777344,34.12969970703125],[-118.40699768066406,34.12900161743164],[-118.40339660644531,34.12620162963867],[-118.40290069580078,34.12580108642578],[-118.39230346679688,34.11650085449219],[-118.3761978149414,34.05950164794922],[-118.3760986328125,34.05070114135742],[-118.3760986328125,34.04990005493164],[-118.3761978149414,34.04710006713867],[-118.37640380859375,34.042598724365234],[-118.37779998779297,34.03419876098633],[-118.37850189208984,34.03219985961914],[-118.37969970703125,34.03139877319336],[-118.3843994140625,34.03020095825195],[-118.38819885253906,34.029300689697266],[-118.51570129394531,34.02619934082031]]]}},{"type":"Feature","properties":{"area name":"West Valley","area":10,"n_crimes":42109,"source":"convex_hull_approximation","total_addresses":66589,"active_addresses":58445,"inactive_addresses":8144,"vacancy_pct":12.2},"geometry":{"type":"Polygon","coordinates":[[[-118.2780990600586,33.94649887084961],[-118.55370330810547,34.12860107421875],[-118.5625,34.13520050048828],[-118.5656967163086,34.13850021362305],[-118.56649780273438,34.13990020751953],[-118.56590270996094,34.172298431396484],[-118.56230163574219,34.21910095214844],[-118.56120300292969,34.220401763916016],[-118.55570220947266,34.22050094604492],[-118.54920196533203,34.22060012817383],[-118.53610229492188,34.22079849243164],[-118.51480102539062,34.221099853515625],[-118.50550079345703,34.22119903564453],[-118.49210357666016,34.22129821777344],[-118.47650146484375,34.22140121459961],[-118.47329711914062,34.22140121459961],[-118.2780990600586,33.94649887084961]]]}},{"type":"Feature","properties":{"area name":"Wilshire","area":7,"n_crimes":48106,"source":"convex_hull_approximation","total_addresses":45817,"active_addresses":42913,"inactive_addresses":2904,"vacancy_pct":6.3},"geometry":{"type":"Polygon","coordinates":[[[-118.37870025634766,34.031898498535156],[-118.39029693603516,34.07360076904297],[-118.38970184326172,34.07529830932617],[-118.37640380859375,34.08879852294922],[-118.3510971069336,34.0890007019043],[-118.34980010986328,34.0890007019043],[-118.34410095214844,34.08890151977539],[-118.33319854736328,34.087100982666016],[-118.32270050048828,34.083499908447266],[-118.31790161132812,34.06169891357422],[-118.31639862060547,34.04999923706055],[-118.31770324707031,34.03710174560547],[-118.32129669189453,34.036598205566406],[-118.33380126953125,34.03499984741211],[-118.37870025634766,34.031898498535156]]]}}]}